171P/Spahr,e,21.9465,101.6881,347.0456,3.553763,0.1471199,0.50216829,219.7390,02/15.0/2023,2000,g 13.5,4.0
# From MPEC 2023-BF4
172P/Yeung,e,11.2253,30.8750,209.2443,4.217264,0.1138041,0.20454918,246.9465,02/15.0/2023,2000,g 13.0,4.0
# From MPEC 2022-X67
173P/Mueller,e,16.4893,100.3813,29.1472,5.709638,0.0722422,0.26150056,30.7480,02/15.0/2023,2000,g  7.5,4.0
# From MPC 92985
174P/Echeclus,e,4.3439,173.1877,163.4066,10.74405,0.0279867,0.45694056,79.8008,02/15.0/2023,2000,g  9.4,2.0
# From MPC114608
175P/Hergenrother,e,4.9247,111.5943,74.3183,3.640348,0.1419024,0.39086755,177.4350,02/15.0/2023,2000,g 14.0,4.0
# From MPC 89015
176P/LINEAR,e,0.2314,345.8808,34.3452,3.197421,0.1723869,0.19293790,14.8562,02/15.0/2023,2000,g 15.1,2.0
# From MPEC 2020-L06
177P/Barnard,e,31.1100,271.9075,60.6124,24.49198,0.0081315,0.95515234,48.8349,02/15.0/2023,2000,g 15.0,4.0
# From MPEC 2021-F20
178P/Hug-Bell,e,11.0874,102.8331,297.8505,3.632645,0.1423540,0.48248322,134.2216,02/15.0/2023,2000,g 14.6,4.0
# From MPEC 2023-CD7
179P/Jedicke,e,19.8976,115.5142,296.9885,5.932626,0.0682077,0.30586104,17.7462,02/15.0/2023,2000,g  2.5,8.0
# From MPEC 2023-CD7
180P/NEAT,e,16.8603,84.5686,94.6749,3.867005,0.1296110,0.35329968,340.9172,02/15.0/2023,2000,g 11.0,4.0
# From MPC 89012
181P/Shoemaker-Levy,e,17.4862,35.3957,336.2692,3.875400,0.1291901,0.70057896,51.9650,02/15.0/2023,2000,g 11.5,4.0
# From MPEC 2014-J10
182P/LONEOS,e,16.2286,72.4570,54.2233,2.950297,0.1944936,0.66325226,54.2158,02/15.0/2023,2000,g 18.0,4.0
# From MPEC 2023-A50
183P/Korlevic-Juric,e,18.9850,3.9873,167.6192,4.650232,0.0982861,0.11028786,192.1872,02/15.0/2023,2000,g 12.5,2.0
# From MPEC 2020-W26
184P/Lovas,e,4.5740,173.2405,186.5513,3.797387,0.1331916,0.55093864,112.0993,02/15.0/2023,2000,g 13.5,4.0
# From MPC109593
185P/Petriew,e,14.0146,214.1149,181.8909,3.097860,0.1807638,0.69969578,333.2636,02/15.0/2023,2000,g 15.0,4.0
# From MPEC 2022-X67
186P/Garradd,e,28.6636,326.3492,269.6507,4.855807,0.0921111,0.12398774,138.4996,02/15.0/2023,2000,g  7.5,4.0
# From MPEC 2020-SI8
187P/LINEAR,e,13.6370,109.8864,131.3410,4.564917,0.1010543,0.15243310,175.9708,02/15.0/2023,2000,g  9.0,4.0
# From MPEC 2022-K19
188P/LINEAR-Mueller,e,10.5257,358.9633,26.6399,4.370521,0.1078709,0.41681171,235.6575,02/15.0/2023,2000,g 11.5,4.0
# From MPEC 2022-QD9
189P/NEAT,e,20.0688,281.7039,16.3367,2.945966,0.1949228,0.58879295,33.1667,02/15.0/2023,2000,g 19.0,4.0
# From MPEC 2020-K19
190P/Mueller,e,2.1741,335.5344,50.4074,4.230282,0.1132792,0.52221456,283.1957,02/15.0/2023,2000,g 13.0,4.0
# From MPEC 2022-X67
191P/McNaught,e,8.8398,98.2193,284.1354,3.637693,0.1420578,0.38599293,98.9501,02/15.0/2023,2000,g 13.0,4.0
# From MPC 75724
192P/Shoemaker-Levy,e,24.5868,51.6107,313.0572,6.467087,0.0599296,0.77344920,332.1724,02/15.0/2023,2000,g 15.0,4.0
# From MPEC 2022-Y15
193P/LINEAR-NEAT,e,10.6879,335.1770,8.1042,3.576800,0.1457008,0.39364267,78.5081,02/15.0/2023,2000,g 14.0,4.0
# From MPC 98566
194P/LINEAR,e,11.8249,349.5917,128.4720,4.128588,0.1174902,0.56440659,318.4173,02/15.0/2023,2000,g 16.0,4.0
# From MPEC 2023-CD7
195P/Hill,e,36.3455,243.1146,249.2971,6.507604,0.0593707,0.31465122,307.0139,02/15.0/2023,2000,g  8.5,4.0
# From MPEC 2022-YN2
196P/Tichy,e,19.3017,24.1121,12.0408,3.803877,0.1328508,0.42812885,14.4399,02/15.0/2023,2000,g 13.5,4.0
# From MPC 94676
197P/LINEAR,e,25.5282,66.3620,188.7524,2.867808,0.2029453,0.62933999,14.0585,02/15.0/2023,2000,g 16.5,2.0
# From NK 1596
198P/ODAS,e,1.3385,358.2177,69.2144,3.596204,0.1445232,0.44434048,220.1249,02/15.0/2023,2000,g  9.0,4.0
# From MPEC 2022-N37
199P/Shoemaker,e,24.9358,92.3490,191.7728,5.883733,0.0690597,0.50536340,348.0129,02/15.0/2023,2000,g 10.0,4.0
# From MPEC 2022-C56
200P/Larsen,e,12.0981,234.7393,134.3212,4.946504,0.0895894,0.33259294,116.0933,02/15.0/2023,2000,g  9.0,4.0
# From MPC 93588
201P/LONEOS,e,5.7396,19.7451,41.5427,3.354674,0.1604090,0.63736599,100.9217,02/15.0/2023,2000,g 14.0,4.0
# From MPEC 2022-X67
202P/Scotti,e,2.1394,177.3203,274.7803,4.118823,0.1179083,0.25658629,306.0190,02/15.0/2023,2000,g 13.5,4.0
# From MPEC 2021-S45
203P/Korlevic,e,2.9729,290.2869,154.7804,4.669327,0.0976838,0.31576014,105.2097,02/15.0/2023,2000,g 14.5,2.0
# From MPEC 2023-CD7
204P/LINEAR-NEAT,e,6.5962,108.4994,356.6532,3.581561,0.1454105,0.48783064,13.1071,02/15.0/2023,2000,g 14.0,4.0
# From MPEC 2023-A50
205P/Giacobini,e,15.3062,179.6025,154.1745,3.542048,0.1478504,0.56796994,58.7493,02/15.0/2023,2000,g 13.0,4.0
# From MPC 75725
206P/Barnard-Boattini,e,33.6407,202.3307,189.5352,3.490054,0.1511666,0.55153723,107.6771,02/15.0/2023,2000,g 19.0,4.0
# From MPC 75725
207P/NEAT,e,10.2010,198.1629,273.0317,3.879701,0.1289753,0.75842622,314.7553,02/15.0/2023,2000,g 16.0,4.0
# From MPEC 2022-K19
208P/McMillan,e,4.4126,36.3399,310.5992,4.041612,0.1213032,0.37414090,292.5999,02/15.0/2023,2000,g 12.5,4.0
# From MPEC 2023-CD7
209P/LINEAR,e,21.2690,62.7655,152.4425,2.959782,0.1935595,0.67346982,260.1805,02/15.0/2023,2000,g 17.0,2.0
# From MPC105242
210P/Christensen,e,10.2751,93.8038,345.9020,3.162970,0.1752111,0.83367787,182.7245,02/15.0/2023,2000,g 13.5,4.0
# From MPEC 2023-C45
211P/Hill,e,18.9192,117.1305,4.2894,3.547745,0.1474944,0.34393211,19.6706,02/15.0/2023,2000,g 12.5,4.0
# From MPEC 2021-F20
212P/NEAT,e,22.1476,98.0577,14.0398,3.899593,0.1279898,0.58702470,304.3071,02/15.0/2023,2000,g 17.0,2.0
# From MPEC 2022-GA9
213P/Van Ness,e,10.3807,311.2796,5.7583,3.345993,0.1610336,0.40811749,316.5673,02/15.0/2023,2000,g 10.5,4.0
# From MPC 92986
214P/LINEAR,e,15.1829,348.2478,190.1743,3.619736,0.1431162,0.48589753,20.2939,02/15.0/2023,2000,g 13.0,4.0
# From MPEC 2023-B57
215P/NEAT,e,10.5772,56.6788,262.4061,4.331226,0.1093422,0.16611868,129.4215,02/15.0/2023,2000,g 11.0,4.0
# From MPC100284
216P/LINEAR,e,9.0637,359.8036,151.6757,3.858502,0.1300397,0.44855828,317.6381,02/15.0/2023,2000,g 13.0,4.0
# From MPEC 2021-N06
217P/LINEAR,e,12.8621,125.4253,246.9410,3.948414,0.1256232,0.68930227,255.7667,02/15.0/2023,2000,g 12.0,4.0
# From MPEC 2022-K19
218P/LINEAR,e,2.7305,176.0103,59.5535,3.088018,0.1816287,0.62323729,156.9407,02/15.0/2023,2000,g 16.0,4.0
# From MPC100284
219P/LINEAR,e,11.5394,230.9520,107.5829,3.646440,0.1415470,0.35410487,308.5203,02/15.0/2023,2000,g 11.0,4.0
# From MPEC 2021-BE3
220P/McNaught,e,8.1276,150.1053,180.6053,3.117735,0.1790380,0.50133232,142.5952,02/15.0/2023,2000,g 15.0,4.0
# From MPEC 2022-UY9
221P/LINEAR,e,11.4536,229.6027,40.1511,3.458281,0.1532547,0.49395550,64.9294,02/15.0/2023,2000,g 14.5,4.0
# From MPC 92277
222P/LINEAR,e,5.0980,6.7754,346.2797,2.898603,0.1997197,0.71478699,269.5586,02/15.0/2023,2000,g 20.0,4.0
# From MPEC 2023-A50
223P/Skiff,e,27.0229,346.7662,37.8627,4.158580,0.1162215,0.41654162,171.7852,02/15.0/2023,2000,g 12.0,4.0
# From MPEC 2023-BF4
224P/LINEAR-NEAT,e,13.3058,40.0383,16.6792,3.443512,0.1542416,0.40582546,21.2881,02/15.0/2023,2000,g 15.5,4.0
# From MPC 75727
225P/LINEAR,e,21.3668,14.2047,3.9166,3.647932,0.1414601,0.63847479,335.3767,02/15.0/2023,2000,g 18.0,4.0
# From MPC106349
226P/Pigott-LINEAR-Kowalski,e,44.0446,54.0130,341.0750,3.766013,0.1348594,0.52897523,317.4840,02/15.0/2023,2000,g 12.5,4.0
# From MPC102956
227P/Catalina-LINEAR,e,7.5067,36.8155,105.4070,3.444986,0.1541427,0.52842557,300.3785,02/15.0/2023,2000,g 16.5,2.0
# From MPEC 2022-HC2
228P/LINEAR,e,7.9132,30.9869,114.8487,4.166658,0.1158837,0.17634128,124.4548,02/15.0/2023,2000,g 14.1,4.0
# From MPC106349
229P/Gibbs,e,26.0918,157.9023,224.0711,3.926216,0.1266902,0.37794288,265.0521,02/15.0/2023,2000,g 13.0,4.0
# From MPEC 2023-C45
230P/LINEAR,e,15.4685,106.9774,313.4594,3.452692,0.1536269,0.54559354,51.0989,02/15.0/2023,2000,g 13.0,4.0
# From MPEC 2022-K19
231P/LINEAR-NEAT,e,12.2939,132.9660,44.2017,4.047704,0.1210294,0.24268756,162.3977,02/15.0/2023,2000,g 14.5,2.0
# From MPC112394
232P/Hill,e,14.6430,56.0248,53.2320,4.474962,0.1041166,0.33483565,146.9271,02/15.0/2023,2000,g 11.5,4.0
# From MPEC 2021-N06
233P/La Sagra,e,11.2889,74.9168,26.9616,3.028401,0.1870182,0.41224488,162.0105,02/15.0/2023,2000,g 15.0,4.0
# From MPEC 2022-K19
234P/LINEAR,e,11.5357,179.5721,357.3175,3.796480,0.1332393,0.25644167,277.8734,02/15.0/2023,2000,g 12.0,4.0
# From MPC110497
235P/LINEAR,e,9.8197,202.1138,335.1214,3.856216,0.1301553,0.36061021,225.7262,02/15.0/2023,2000,g 12.0,4.0
# From MPC107688
236P/LINEAR,e,16.3506,245.5732,119.3434,3.727931,0.1369312,0.50941180,261.4651,02/15.0/2023,2000,g 14.0,4.0
# From MPEC 2023-CD7
237P/LINEAR,e,14.0163,245.3593,25.2611,3.511043,0.1498131,0.43406003,346.7145,02/15.0/2023,2000,g 14.5,2.0
# From MPEC 2022-YN2
238P/Read,e,1.2640,51.6255,324.1910,3.165308,0.1750169,0.25145474,44.5661,02/15.0/2023,2000,g 14.5,4.0
# From MPEC 2021-F20
239P/LINEAR,e,11.3039,255.9308,220.3643,4.467388,0.1043815,0.63042445,156.3387,02/15.0/2023,2000,g 17.5,2.0
# From MPEC 2023-CD7
240P/NEAT,e,23.5305,74.9092,351.9553,3.864016,0.1297615,0.44988958,225.1701,02/15.0/2023,2000,g 11.0,4.0
# From MPEC 2022-J42
241P/LINEAR,e,21.1004,305.4700,111.4710,4.921774,0.0902655,0.61037857,51.3637,02/15.0/2023,2000,g 13.5,4.0
# From MPEC 2021-S45
242P/Spahr,e,32.5084,180.3763,245.2872,5.506771,0.0762708,0.27940192,308.0735,02/15.0/2023,2000,g  8.0,4.0
# From MPEC 2022-K19
243P/NEAT,e,7.6417,87.5948,283.6505,3.829682,0.1315104,0.36063868,214.5734,02/15.0/2023,2000,g 12.5,4.0
# From MPEC 2023-CD7
244P/Scotti,e,2.2593,353.9947,93.1312,4.896790,0.0909571,0.19938882,8.1460,02/15.0/2023,2000,g  9.0,4.0
# From MPEC 2022-CN4
245P/WISE,e,21.1877,316.6675,316.8503,4.047692,0.1210299,0.45608165,221.9888,02/15.0/2023,2000,g 14.0,4.0
# From MPEC 2023-A50
246P/NEAT,e,16.0158,77.9180,177.8362,4.040211,0.1213663,0.29023421,87.1431,02/15.0/2023,2000,g 10.5,4.0
# From MPEC 2021-F20
247P/LINEAR,e,13.6591,54.0302,47.4039,3.967230,0.1247306,0.62475287,191.6573,02/15.0/2023,2000,g 16.5,2.0
# From MPC 75730
248P/Gibbs,e,6.3512,207.8123,209.8710,5.989560,0.0672375,0.63914859,296.5982,02/15.0/2023,2000,g 14.0,4.0
# From MPEC 2022-YN2
